NORAD_CAT_ID,OBJECT_NAME,OBJECT_TYPE,EPOCH,MEAN_MOTION,ECCENTRICITY,INCLINATION,RA_OF_ASC_NODE,ARG_OF_PERICENTER,MEAN_ANOMALY,BSTAR,MEAN_MOTION_DOT,MEAN_MOTION_DDOT,TLE_LINE0,TLE_LINE1,TLE_LINE2,SEMIMAJOR_AXIS,PERIOD,APOGEE,PERIGEE,DECAYED
53606.0,STARLINK-4590,PAYLOAD,2023-12-13 03:45:02,15.08843423,0.0001772,53.2189,304.2869,74.2968,285.8219,8.2683e-05,1.028e-05,0.0,0 STARLINK-4590,1 53606U 22104U   23347.15627782  .00001028  00000-0  82683-4 0  9998,2 53606  53.2189 304.2869 0001772  74.2968 285.8219 15.08843423 71646,6917.87,95.437,540.961,538.509,0.0
53606.0,STARLINK-4590,PAYLOAD,2023-12-14 03:35:49,15.08843991,0.0001528,53.2176,299.8292,92.3299,267.7868,1.9461e-05,2.2e-07,0.0,0 STARLINK-4590,1 53606U 22104U   23348.14987576  .00000022  00000-0  19461-4 0  9995,2 53606  53.2176 299.8292 0001528  92.3299 267.7868 15.08843991 72367,6917.868,95.437,540.79,538.676,0.0
53606.0,STARLINK-4590,PAYLOAD,2023-12-15 01:51:13,15.08839304,0.0001618,53.2184,295.6646,103.6807,256.4365,5.0172e-05,5.11e-06,0.0,0 STARLINK-4590,1 53606U 22104U   23349.07723654  .00000511  00000-0  50172-4 0  9990,2 53606  53.2184 295.6646 0001618 103.6807 256.4365 15.08839304 71936,6917.883,95.438,540.867,538.628,0.0
53606.0,STARLINK-4590,PAYLOAD,2023-12-16 01:42:01,15.0883089,0.0001893,53.22,291.2068,121.484,238.6338,-1.7393e-05,-5.65e-06,0.0,0 STARLINK-4590,1 53606U 22104U   23350.07084635 -.00000565  00000-0 -17393-4 0  9990,2 53606  53.2200 291.2068 0001893 121.4840 238.6338 15.08830890 72085,6917.908,95.438,541.083,538.464,0.0
53606.0,STARLINK-4590,PAYLOAD,2023-12-17 01:32:47,15.08843379,0.0001283,53.2177,286.739,96.6673,263.4466,7.4785e-06,-1.69e-06,0.0,0 STARLINK-4590,1 53606U 22104U   23351.06444205 -.00000169  00000-0  74785-5 0  9991,2 53606  53.2177 286.7390 0001283  96.6673 263.4466 15.08843379 72236,6917.87,95.437,540.623,538.847,0.0
53606.0,STARLINK-4590,PAYLOAD,2023-12-18 02:58:57,15.08857365,0.0001211,53.2163,281.9851,84.3297,275.7833,0.00032467,4.885e-05,0.0,0 STARLINK-4590,1 53606U 22104U   23352.12427288  .00004885  00000-0  32467-3 0  9998,2 53606  53.2163 281.9851 0001211  84.3297 275.7833 15.08857365 72398,6917.827,95.436,540.53,538.855,0.0
53606.0,STARLINK-4590,PAYLOAD,2023-12-19 02:49:45,15.08832933,0.0001523,53.2159,277.5251,73.6997,286.4163,-8.6886e-05,-1.67e-05,0.0,0 STARLINK-4590,1 53606U 22104U   23353.11788962 -.00001670  00000-0 -86886-4 0  9993,2 53606  53.2159 277.5251 0001523  73.6997 286.4163 15.08832933 72548,6917.902,95.438,540.821,538.713,0.0
53606.0,STARLINK-4590,PAYLOAD,2023-12-20 01:05:09,15.08849153,0.0001502,53.216,273.3608,79.9512,280.165,0.00010462,1.378e-05,0.0,0 STARLINK-4590,1 53606U 22104U   23354.04524346  .00001378  00000-0  10462-3 0  9999,2 53606  53.2160 273.3608 0001502  79.9512 280.1650 15.08849153 72688,6917.852,95.437,540.756,538.678,0.0
53606.0,STARLINK-4590,PAYLOAD,2023-12-21 00:55:56,15.08852168,0.0001633,53.2143,268.9049,68.6931,291.4235,0.00046767,7.165e-05,0.0,0 STARLINK-4590,1 53606U 22104U   23355.03884526  .00007165  00000-0  46767-3 0  9995,2 53606  53.2143 268.9049 0001633  68.6931 291.4235 15.08852168 73408,6917.843,95.437,540.838,538.579,0.0
53606.0,STARLINK-4590,PAYLOAD,2023-12-21 21:35:57,15.08841742,0.0001443,53.2149,265.037,85.9211,274.1946,2.7892e-05,1.56e-06,0.0,0 STARLINK-4590,1 53606U 22104U   23355.89996681  .00000156  00000-0  27892-4 0  9997,2 53606  53.2149 265.0370 0001443  85.9211 274.1946 15.08841742 73538,6917.875,95.437,540.738,538.742,0.0
53606.0,STARLINK-4590,PAYLOAD,2023-12-22 00:46:43,15.08841368,0.0001488,53.2157,264.4396,98.1029,262.0131,1.7886e-05,-3e-08,0.0,0 STARLINK-4590,1 53606U 22104U   23356.03244583 -.00000003  00000-0  17886-4 0  9995,2 53606  53.2157 264.4396 0001488  98.1029 262.0131 15.08841368 72984,6917.876,95.437,540.771,538.712,0.0
53606.0,STARLINK-4590,PAYLOAD,2023-12-22 21:26:44,15.08839306,0.0001543,53.2168,260.573,101.6741,258.4425,5.6374e-05,6.09e-06,0.0,0 STARLINK-4590,1 53606U 22104U   23356.89356807  .00000609  00000-0  56374-4 0  9998,2 53606  53.2168 260.5730 0001543 101.6741 258.4425 15.08839306 73680,6917.883,95.438,540.815,538.68,0.0
53606.0,STARLINK-4590,PAYLOAD,2023-12-23 03:48:16,15.08842361,0.0001638,53.2166,259.3794,107.1112,253.006,0.00018968,2.732e-05,0.0,0 STARLINK-4590,1 53606U 22104U   23357.15852660  .00002732  00000-0  18968-3 0  9991,2 53606  53.2166 259.3794 0001638 107.1112 253.0060 15.08842361 73155,6917.873,95.437,540.871,538.605,0.0
53606.0,STARLINK-4590,PAYLOAD,2023-12-23 21:17:31,15.08836362,0.0001732,53.2167,256.1061,111.7715,248.3461,5.9385e-05,6.57e-06,0.0,0 STARLINK-4590,1 53606U 22104U   23357.88717167  .00000657  00000-0  59385-4 0  9996,2 53606  53.2167 256.1061 0001732 111.7715 248.3461 15.08836362 73834,6917.892,95.438,540.955,538.558,0.0
53606.0,STARLINK-4590,PAYLOAD,2023-12-24 03:39:04,15.08833901,0.0001556,53.2167,254.9174,95.9118,264.2051,9.9966e-05,1.303e-05,0.0,0 STARLINK-4590,1 53606U 22104U   23358.15213428  .00001303  00000-0  99966-4 0  9996,2 53606  53.2167 254.9174 0001556  95.9118 264.2051 15.08833901 73309,6917.899,95.438,540.84,538.688,0.0
53606.0,STARLINK-4590,PAYLOAD,2023-12-24 21:08:18,15.08844219,0.0001513,53.2163,251.6464,101.5199,258.5963,3.8922e-05,3.32e-06,0.0,0 STARLINK-4590,1 53606U 22104U   23358.88076970  .00000332  00000-0  38922-4 0  9991,2 53606  53.2163 251.6464 0001513 101.5199 258.5963 15.08844219 73983,6917.867,95.437,540.779,538.686,0.0
53606.0,STARLINK-4590,PAYLOAD,2023-12-24 22:43:41,15.08844936,0.0001518,53.2163,251.3491,101.5182,258.5981,4.9514e-05,5e-06,0.0,0 STARLINK-4590,1 53606U 22104U   23358.94700933  .00000500  00000-0  49514-4 0  9997,2 53606  53.2163 251.3491 0001518 101.5182 258.5981 15.08844936 73422,6917.865,95.437,540.78,538.68,0.0
53606.0,STARLINK-4590,PAYLOAD,2023-12-25 22:34:29,15.08838128,0.0001466,53.2164,246.8914,92.7336,267.3824,4.2641e-05,3.91e-06,0.0,0 STARLINK-4590,1 53606U 22104U   23359.94061465  .00000391  00000-0  42641-4 0  9990,2 53606  53.2164 246.8914 0001466  92.7336 267.3824 15.08838128 74146,6917.886,95.438,540.765,538.737,0.0
53606.0,STARLINK-4590,PAYLOAD,2023-12-26 01:45:15,15.08838982,0.0001421,53.2159,246.2962,80.6936,279.4217,4.9525e-05,5e-06,0.0,0 STARLINK-4590,1 53606U 22104U   23360.07309475  .00000500  00000-0  49525-4 0  9992,2 53606  53.2159 246.2962 0001421  80.6936 279.4217 15.08838982 73596,6917.884,95.438,540.732,538.765,0.0
53606.0,STARLINK-4590,PAYLOAD,2023-12-26 22:25:16,15.08846043,0.0001329,53.2168,242.4282,83.4197,276.6946,2.5772e-05,1.22e-06,0.0,0 STARLINK-4590,1 53606U 22104U   23360.93421422  .00000122  00000-0  25772-4 0  9992,2 53606  53.2168 242.4282 0001329  83.4197 276.6946 15.08846043 74299,6917.862,95.437,540.646,538.808,0.0
53606.0,STARLINK-4590,PAYLOAD,2023-12-27 01:36:02,15.08847123,0.0001501,53.2179,241.8315,63.3468,296.7678,9.5076e-05,1.226e-05,0.0,0 STARLINK-4590,1 53606U 22104U   23361.06669089  .00001226  00000-0  95076-4 0  9990,2 53606  53.2179 241.8315 0001501  63.3468 296.7678 15.08847123 74319,6917.859,95.437,540.762,538.685,0.0
53606.0,STARLINK-4590,PAYLOAD,2023-12-27 22:16:03,15.08842931,0.0001312,53.2163,237.9712,100.2487,259.8653,9.2781e-05,1.189e-05,0.0,0 STARLINK-4590,1 53606U 22104U   23361.92781355  .00001189  00000-0  92781-4 0  9994,2 53606  53.2163 237.9712 0001312 100.2487 259.8653 15.08842931 74440,6917.871,95.437,540.644,538.829,0.0
53606.0,STARLINK-4590,PAYLOAD,2023-12-28 01:26:49,15.08844416,0.0001361,53.2169,237.3754,89.1508,270.964,0.00010612,1.402e-05,0.0,0 STARLINK-4590,1 53606U 22104U   23362.06029270  .00001402  00000-0  10612-3 0  9991,2 53606  53.2169 237.3754 0001361  89.1508 270.9640 15.08844416 73897,6917.867,95.437,540.673,538.79,0.0
53606.0,STARLINK-4590,PAYLOAD,2023-12-28 22:06:50,15.08845941,0.0001432,53.2167,233.5093,116.2293,243.8847,-2.2738e-05,-6.5e-06,0.0,0 STARLINK-4590,1 53606U 22104U   23362.92141318 -.00000650  00000-0 -22738-4 0  9993,2 53606  53.2167 233.5093 0001432 116.2293 243.8847 15.08845941 74591,6917.862,95.437,540.718,538.737,0.0
53606.0,STARLINK-4590,PAYLOAD,2023-12-29 01:17:36,15.08843954,0.0001462,53.2169,232.9149,83.9788,276.137,2.0816e-05,4.3e-07,0.0,0 STARLINK-4590,1 53606U 22104U   23363.05389444  .00000043  00000-0  20816-4 0  9991,2 53606  53.2169 232.9149 0001462  83.9788 276.1370 15.08843954 74042,6917.868,95.437,540.745,538.722,0.0
53606.0,STARLINK-4590,PAYLOAD,2023-12-29 18:46:51,15.08838983,0.0001492,53.2167,229.6433,96.4171,263.6991,1.5314e-05,-4.4e-07,0.0,0 STARLINK-4590,1 53606U 22104U   23363.78253763 -.00000044  00000-0  15314-4 0  9994,2 53606  53.2167 229.6433 0001492  96.4171 263.6991 15.08838983 74155,6917.883,95.438,540.781,538.716,0.0
53606.0,STARLINK-4590,PAYLOAD,2023-12-29 21:57:37,15.08839895,0.0001538,53.2168,229.0487,89.8107,270.3061,1.5698e-05,-3.8e-07,0.0,0 STARLINK-4590,1 53606U 22104U   23363.91501686 -.00000038  00000-0  15698-4 0  9997,2 53606  53.2168 229.0487 0001538  89.8107 270.3061 15.08839895 74746,6917.881,95.438,540.81,538.682,0.0
53606.0,STARLINK-4590,PAYLOAD,2023-12-30 21:48:24,15.08840291,0.0001503,53.2163,224.5872,89.1272,270.9892,8.1402e-05,1.008e-05,0.0,0 STARLINK-4590,1 53606U 22104U   23364.90861418  .00001008  00000-0  81402-4 0  9992,2 53606  53.2163 224.5872 0001503  89.1272 270.9892 15.08840291 74893,6917.879,95.438,540.784,538.705,0.0
53606.0,STARLINK-4590,PAYLOAD,2023-12-31 00:59:10,15.08839876,0.0001548,53.2166,223.9942,92.8549,267.262,6.4416e-05,7.37e-06,0.0,0 STARLINK-4590,1 53606U 22104U   23365.04109496  .00000737  00000-0  64416-4 0  9993,2 53606  53.2166 223.9942 0001548  92.8549 267.2620 15.08839876 74349,6917.881,95.438,540.817,538.675,0.0
53606.0,STARLINK-4590,PAYLOAD,2023-12-31 20:03:48,15.08835154,0.0001517,53.2161,220.4256,97.5485,262.568,2.0256e-05,3.4e-07,0.0,0 STARLINK-4590,1 53606U 22104U   23365.83598089  .00000034  00000-0  20256-4 0  9994,2 53606  53.2161 220.4256 0001517  97.5485 262.5680 15.08835154 74463,6917.895,95.438,540.81,538.711,0.0
